NORAD_CAT_ID,OBJECT_NAME,OBJECT_TYPE,EPOCH,MEAN_MOTION,ECCENTRICITY,INCLINATION,RA_OF_ASC_NODE,ARG_OF_PERICENTER,MEAN_ANOMALY,BSTAR,MEAN_MOTION_DOT,MEAN_MOTION_DDOT,TLE_LINE0,TLE_LINE1,TLE_LINE2,SEMIMAJOR_AXIS,PERIOD,APOGEE,PERIGEE,DECAYED
52837.0,STARLINK-4036,PAYLOAD,2022-08-05 14:00:01,15.32178077,0.0001512,53.2175,165.1787,53.6475,185.8019,-0.0391829999999999,-0.01126703,0.0,0 STARLINK-4036,1 52837U 22062H   22217.58335648 -.01126703  00000-0 -39183-1 0  9990,2 52837  53.2175 165.1787 0001512  53.6475 185.8019 15.32178077  1301,6847.4519999999975,93.984,470.353,468.282,0.0
52837.0,STARLINK-4036,PAYLOAD,2022-08-05 22:00:00,15.31373364,0.0001445,53.2175,163.6285,55.8599,222.671,-0.040039,-0.01122861,0.0,0 STARLINK-4036,1 52837U 22062H   22217.91667824 -.01122861  00000-0 -40039-1 0  9994,2 52837  53.2175 163.6285 0001445  55.8599 222.6710 15.31373364  7739,6849.851,94.033,472.706,470.726,0.0
52837.0,STARLINK-4036,PAYLOAD,2022-08-06 14:00:01,15.29768694,0.0001455,53.2174,160.5343,43.3021,310.6241,-0.042214,-0.01125703,0.0,0 STARLINK-4036,1 52837U 22062H   22218.58334491 -.01125703  00000-0 -42214-1 0  9994,2 52837  53.2174 160.5343 0001455  43.3021 310.6241 15.29768694  1307,6854.64,94.132,477.503,475.508,0.0
52837.0,STARLINK-4036,PAYLOAD,2022-08-06 22:00:00,15.28965187,0.0001440999999999,53.2175,158.99,47.5865,342.5901,-0.043202,-0.01123867,0.0,0 STARLINK-4036,1 52837U 22062H   22218.91667824 -.01123867  00000-0 -43202-1 0  9997,2 52837  53.2175 158.9900 0001441  47.5865 342.5901 15.28965187  1307,6857.041,94.181,479.895,477.918,0.0
52837.0,STARLINK-4036,PAYLOAD,2022-08-07 14:00:01,15.27357607,0.000173,53.2175,155.9069,38.5586,61.2255,-0.045277,-0.01121295,0.0,0 STARLINK-4036,1 52837U 22062H   22219.58334491 -.01121295  00000-0 -45277-1 0  9999,2 52837  53.2175 155.9069 0001730  38.5586  61.2255 15.27357607  1309,6861.852,94.28,484.904,482.53,0.0
52837.0,STARLINK-4036,PAYLOAD,2022-08-07 22:00:00,15.26555019,0.0001794,53.2175,154.3683,41.536,91.6039,-0.046411,-0.01121527,0.0,0 STARLINK-4036,1 52837U 22062H   22219.91667824 -.01121527  00000-0 -46411-1 0  9994,2 52837  53.2175 154.3683 0001794  41.5360  91.6039 15.26555019  8049,6864.257,94.33,487.353,484.891,0.0
52837.0,STARLINK-4036,PAYLOAD,2022-08-08 03:42:35,15.27415817,0.0001152,53.2168,153.2774,25.3639,334.7418,-0.019251,-0.00490558,0.0,0 STARLINK-4036,1 52837U 22062H   22220.15457973 -.00490558  00000-0 -19251-1 0  9998,2 52837  53.2168 153.2774 0001152  25.3639 334.7418 15.27415817  8085,6861.678000000001,94.277,484.333,482.752,0.0
52837.0,STARLINK-4036,PAYLOAD,2022-08-08 14:00:01,15.24948225,0.0001774,53.2174,151.2963,43.0159,154.0055,-0.048625,-0.01119331,0.0,0 STARLINK-4036,1 52837U 22062H   22220.58335648 -.01119331  00000-0 -48625-1 0  9994,2 52837  53.2174 151.2963 0001774  43.0159 154.0055 15.24948225  1303,6869.078,94.429,492.161,489.724,0.0
52837.0,STARLINK-4036,PAYLOAD,2022-08-08 22:00:00,15.24145386,0.0001748,53.2175,149.7638,45.6609,181.7582,-0.049816,-0.01134085,0.0,0 STARLINK-4036,1 52837U 22062H   22220.91667824 -.01134085  00000-0 -49816-1 0  9991,2 52837  53.2175 149.7638 0001748  45.6609 181.7582 15.24145386  1303,6871.49,94.479,494.556,492.154,0.0
52837.0,STARLINK-4036,PAYLOAD,2022-08-09 14:00:01,15.22539415,0.0001499,53.2175,146.7029,49.3489,236.0993,-0.052245,-0.01133652,0.0,0 STARLINK-4036,1 52837U 22062H   22221.58334491 -.01133652  00000-0 -52245-1 0  9995,2 52837  53.2175 146.7029 0001499  49.3489 236.0993 15.22539415  1302,6876.321,94.579,499.217,497.155,0.0
52837.0,STARLINK-4036,PAYLOAD,2022-08-09 22:00:00,15.21737359,0.0001699999999999,53.2174,145.17600000000004,39.4486,273.5659,-0.05356,-0.01134812,0.0,0 STARLINK-4036,1 52837U 22062H   22221.91667824 -.01134812  00000-0 -53560-1 0  9991,2 52837  53.2174 145.1760 0001700  39.4486 273.5659 15.21737359  1309,6878.736999999999,94.629,501.771,499.4330000000001,0.0
52837.0,STARLINK-4036,PAYLOAD,2022-08-10 14:00:01,15.20130023,0.0001516,53.2174,142.1264,41.7775,323.478,-0.056048,-0.01132744,0.0,0 STARLINK-4036,1 52837U 22062H   22222.58334491 -.01132744  00000-0 -56048-1 0  9992,2 52837  53.2174 142.1264 0001516  41.7775 323.4780 15.20130023  1301,6883.585,94.729,506.494,504.407,0.0
52837.0,STARLINK-4036,PAYLOAD,2022-08-10 17:07:18,15.19809305,0.0001639,53.2174,141.533,36.0912,321.2846,-0.056013,-0.01122319,0.0,0 STARLINK-4036,1 52837U 22062H   22222.71341435 -.01122319  00000-0 -56013-1 0  9992,2 52837  53.2174 141.5330 0001639  36.0912 321.2846 15.19809305  8472,6884.553000000001,94.749,507.547,505.29,0.0
52837.0,STARLINK-4036,PAYLOAD,2022-08-10 22:00:00,15.1932915,0.0001758,53.2175,140.6053,36.0643,353.8626,-0.057537,-0.0113572,0.0,0 STARLINK-4036,1 52837U 22062H   22222.91667824 -.01135720  00000-0 -57537-1 0  9999,2 52837  53.2175 140.6053 0001758  36.0643 353.8626 15.19329150  1305,6886.004,94.779,509.079,506.658,0.0
52837.0,STARLINK-4036,PAYLOAD,2022-08-11 14:00:01,15.17720743,0.0001686999999999,53.2174,137.5667,39.4609,36.9186,-0.060061,-0.01131731,0.0,0 STARLINK-4036,1 52837U 22062H   22223.58334491 -.01131731  00000-0 -60061-1 0  9998,2 52837  53.2174 137.5667 0001687  39.4609  36.9186 15.17720743  1301,6890.868,94.879,513.895,511.57,0.0
52837.0,STARLINK-4036,PAYLOAD,2022-08-11 22:00:00,15.16919497,0.0001966999999999,53.2174,136.0515,34.7217,63.4346,-0.061609,-0.01134224,0.0,0 STARLINK-4036,1 52837U 22062H   22223.91667824 -.01134224  00000-0 -61609-1 0  9993,2 52837  53.2174 136.0515 0001967  34.7217  63.4346 15.16919497  8654,6893.294,94.929,516.515,513.803,0.0
52837.0,STARLINK-4036,PAYLOAD,2022-08-12 14:00:01,15.15312018,0.0001815,53.2174,133.0239,41.1714,97.6483,-0.064341,-0.0113139,0.0,0 STARLINK-4036,1 52837U 22062H   22224.58334491 -.01131390  00000-0 -64341-1 0  9995,2 52837  53.2174 133.0239 0001815  41.1714  97.6483 15.15312018  1301,6898.168000000002,95.03,521.285,518.781,0.0
52837.0,STARLINK-4036,PAYLOAD,2022-08-12 20:00:01,15.14711164,0.0001886999999999,53.2176,131.8915,35.546,27.5891,-0.065583,-0.01133501,0.0,0 STARLINK-4036,1 52837U 22062H   22224.83335648 -.01133501  00000-0 -65583-1 0  9993,2 52837  53.2176 131.8915 0001887  35.5460  27.5891 15.14711164  8793,6899.993,95.068,523.16,520.556,0.0
52837.0,STARLINK-4036,PAYLOAD,2022-08-12 22:00:01,15.14509246,0.0001998,53.2175,131.5143,38.2691,119.4968,-0.065834,-0.01131515,0.0,0 STARLINK-4036,1 52837U 22062H   22224.91668981 -.01131515  00000-0 -65834-1 0  9993,2 52837  53.2175 131.5143 0001998  38.2691 119.4968 15.14509246  1303,6900.606,95.08,523.85,521.092,0.0
52837.0,STARLINK-4036,PAYLOAD,2022-08-13 14:00:01,15.12903313,0.0001911,53.2173,128.4979,40.0449,152.5315,-0.068865,-0.01131078,0.0,0 STARLINK-4036,1 52837U 22062H   22225.58334491 -.01131078  00000-0 -68865-1 0  9994,2 52837  53.2173 128.4979 0001911  40.0449 152.5315 15.12903313  1305,6905.488,95.181,528.673,526.034,0.0
52837.0,STARLINK-4036,PAYLOAD,2022-08-13 22:00:00,15.1209952,0.0001969,53.2175,126.9942,40.1857,168.3796,-0.070322,-0.01129372,0.0,0 STARLINK-4036,1 52837U 22062H   22225.91667824 -.01129372  00000-0 -70322-1 0  9995,2 52837  53.2175 126.9942 0001969  40.1857 168.3796 15.12099520  1301,6907.935,95.232,531.16,528.44,0.0
52837.0,STARLINK-4036,PAYLOAD,2022-08-14 14:00:01,15.10494633,0.0001720999999999,53.2173,123.9887,47.4532,190.1969,-0.073678,-0.01131232,0.0,0 STARLINK-4036,1 52837U 22062H   22226.58334491 -.01131232  00000-0 -73678-1 0  9995,2 52837  53.2173 123.9887 0001721  47.4532 190.1969 15.10494633  9057,6912.8269999999975,95.333,535.882,533.503,0.0
52837.0,STARLINK-4036,PAYLOAD,2022-08-14 22:00:00,15.09569366,0.0002053,53.2175,122.4908,37.8214,212.9438,-0.050552,-0.007609,0.0,0 STARLINK-4036,1 52837U 22062H   22226.91667824 -.00760900  00000-0 -50552-1 0  9996,2 52837  53.2175 122.4908 0002053  37.8214 212.9438 15.09569366  1304,6915.651999999999,95.391,538.937,536.097,0.0
52837.0,STARLINK-4036,PAYLOAD,2022-08-15 06:00:00,15.08900772,0.000197,53.2172,120.9935,42.1237,220.7978,-0.0065803,-0.00103685,0.0,0 STARLINK-4036,1 52837U 22062H   22227.25001157 -.00103685  00000-0 -65803-2 0  9992,2 52837  53.2172 120.9935 0001970  42.1237 220.7978 15.08900772  9151,6917.695,95.434,540.922,538.197,0.0
52837.0,STARLINK-4036,PAYLOAD,2022-08-15 14:00:01,15.08775058,0.0001831999999999,53.2179,119.4973,46.8962,227.6833,0.0055371,0.00088789,0.0,0 STARLINK-4036,1 52837U 22062H   22227.58334491  .00088789  00000-0  55371-2 0  9992,2 52837  53.2179 119.4973 0001832  46.8962 227.6833 15.08775058  1308,6918.079000000002,95.442,541.211,538.677,0.0
52837.0,STARLINK-4036,PAYLOAD,2022-08-15 16:00:00,15.08803647,0.0001771,53.2178,119.1225,47.2472,320.2106,0.0033445999999999,0.00053291,0.0,0 STARLINK-4036,1 52837U 22062H   22227.66667824  .00053291  00000-0  33446-2 0  9999,2 52837  53.2178 119.1225 0001771  47.2472 320.2106 15.08803647  9225,6917.9919999999975,95.44,541.082,538.631,0.0
52837.0,STARLINK-4036,PAYLOAD,2022-08-15 22:00:00,15.08865519,0.0002006999999999,53.2194,118.0076,50.4287,235.7466,-0.0026666,-0.00042508,0.0,0 STARLINK-4036,1 52837U 22062H   22227.91667824 -.00042508  00000-0 -26666-2 0  9994,2 52837  53.2194 118.0076 0002007  50.4287 235.7466 15.08865519  1304,6917.802,95.436,541.056,538.279,0.0
52837.0,STARLINK-4036,PAYLOAD,2022-08-16 00:00:00,15.08862769,0.0002061999999999,53.2194,117.6339,49.075,330.0036,-0.0030975,-0.0004927999999999,0.0,0 STARLINK-4036,1 52837U 22062H   22228.00001157 -.00049280  00000-0 -30975-2 0  9998,2 52837  53.2194 117.6339 0002062  49.0750 330.0036 15.08862769  9271,6917.811,95.436,541.102,538.249,0.0
52837.0,STARLINK-4036,PAYLOAD,2022-08-16 14:00:01,15.08814587,0.0001778,53.2189,115.0136,52.113,257.2576,0.00040347,6.135e-05,0.0,0 STARLINK-4036,1 52837U 22062H   22228.58334491  .00006135  00000-0  40347-3 0  9996,2 52837  53.2189 115.0136 0001778  52.1130 257.2576 15.08814587  1302,6917.958000000001,95.439,541.053,538.5930000000002,0.0
